{
  "norad_id": 50501,
  "name": "ONEWEB-0430",
  "history": [
    {
      "epoch": "2026-03-28T17:54:39.428352Z",
      "apogee_km": 1191.2516474148706,
      "perigee_km": 1188.2379655218983,
      "latitude_deg": -2.9823340364546398e-05,
      "longitude_deg": -103.38059841614489,
      "height_km": 1192.2497154362504,
      "semi_major_axis_km": 7567.881806468384,
      "eccentricity": 0.00019911,
      "inclination_deg": 87.9239,
      "raan_deg": 351.446,
      "arg_perigee_deg": 74.9239,
      "mean_anomaly_deg": 285.2113,
      "mean_motion_rev_day": 13.18685561
    },
    {
      "epoch": "2026-03-29T04:50:13.740288Z",
      "apogee_km": 1191.2474321171258,
      "perigee_km": 1188.2354165042507,
      "latitude_deg": -1.2876689135364679e-05,
      "longitude_deg": 92.18751280124717,
      "height_km": 1192.2453982282639,
      "semi_major_axis_km": 7567.8784243106875,
      "eccentricity": 0.000199,
      "inclination_deg": 87.9238,
      "raan_deg": 351.3558,
      "arg_perigee_deg": 74.8785,
      "mean_anomaly_deg": 285.2567,
      "mean_motion_rev_day": 13.18686445
    }
  ]
}